ONEWEB-0218             
1 48214U 21031E   25324.31020627  .00000165  00000+0  41137-3 0  9993
2 48214  87.8996 331.3003 0002618  78.4877 281.6547 13.14501487220932
ONEWEB-0209             
1 48215U 21031F   25323.99462731  .00000084  00000+0  19324-3 0  9996
2 48215  87.8986 331.4020 0001719  84.5102 275.6224 13.14501990220891
ONEWEB-0198             
1 48216U 21031G   25324.28338693 -.00000206  00000+0 -59004-3 0  9996
2 48216  87.8982 331.3415 0001992  78.1097 282.0256 13.14503204221045
ONEWEB-0189             
1 48217U 21031H   25324.29593640 -.00000247  00000+0 -70039-3 0  9999
2 48217  87.8986 331.3123 0001995  80.4839 279.6516 13.14502240220789
ONEWEB-0196             
1 48218U 21031J   25324.27372954 -.00000150  00000+0 -43810-3 0  9991
2 48218  87.8980 331.3317 0001835  85.4592 274.6747 13.14501574220783
ONEWEB-0183             
1 48219U 21031K   25324.09611841  .00000155  00000+0  38259-3 0  9997
2 48219  87.8977 331.3731 0001598  91.6682 268.4631 13.14501693220858
ONEWEB-0185             
1 48220U 21031L   25324.27453410 -.00000072  00000+0 -22835-3 0  9998
2 48220  87.8986 331.3091 0001458  81.5777 278.5518 13.14503553220805
ONEWEB-0187             
1 48221U 21031M   25324.25457250  .00000252  00000+0  64515-3 0  9992
2 48221  87.8983 331.3578 0001746  81.9365 278.1963 13.14502475220813
ONEWEB-0192             
1 48222U 21031N   25324.30068363 -.00000014  00000+0 -71024-4 0  9994
2 48222  87.8978 331.3396 0001916  88.9329 271.2020 13.14501576220732
ONEWEB-0219             
1 48223U 21031P   25324.28006913 -.00000085  00000+0 -26336-3 0  9998
2 48223  87.8985 331.3197 0001658  83.2478 276.8840 13.14502297220930
ONEWEB-0202             
1 48224U 21031Q   25324.26105391  .00000095  00000+0  22284-3 0  9994
2 48224  87.8987 331.3366 0002369  76.7498 283.3896 13.14502581220918
ONEWEB-0204             
1 48225U 21031R   25324.29514774 -.00000132  00000+0 -39078-3 0  9990
2 48225  87.8987 331.3187 0001551  95.6611 264.4696 13.14502720220811
ONEWEB-0205             
1 48226U 21031S   25324.27055641 -.00000044  00000+0 -15293-3 0  9997
2 48226  87.8988 331.3167 0001718  85.9644 274.1682 13.14502560220820
ONEWEB-0206             
1 48227U 21031T   25324.09136971  .00000293  00000+0  75596-3 0  9990
2 48227  87.8997 331.3407 0002026  96.6484 263.4876 13.14501598220750
ONEWEB-0182             
1 48228U 21031U   25324.08660737  .00000147  00000+0  36331-3 0  9994
2 48228  87.8972 331.3747 0001598  93.7876 266.3437 13.14502560220965
ONEWEB-0186             
1 48229U 21031V   25324.24994921  .00000322  00000+0  83322-3 0  9995
2 48229  87.8995 331.3150 0001794  88.9068 271.2267 13.14501799220932
