[{"OBJECT_NAME":"ONEWEB-0218","OBJECT_ID":"2021-031E","EPOCH":"2025-11-20T07:26:41.821728","MEAN_MOTION":13.14501487,"ECCENTRICITY":0.00026185,"INCLINATION":87.8996,"RA_OF_ASC_NODE":331.3003,"ARG_OF_PERICENTER":78.4877,"MEAN_ANOMALY":281.6547,"EPHEMERIS_TYPE":0,"CLASSIFICATION_TYPE":"U","NORAD_CAT_ID":48214,"ELEMENT_SET_NO":999,"REV_AT_EPOCH":22093,"BSTAR":0.0004113741,"MEAN_MOTION_DOT":1.65e-6,"MEAN_MOTION_DDOT":0},{"OBJECT_NAME":"ONEWEB-0209","OBJECT_ID":"2021-031F","EPOCH":"2025-11-19T23:52:15.799584","MEAN_MOTION":13.1450199,"ECCENTRICITY":0.00017193,"INCLINATION":87.8986,"RA_OF_ASC_NODE":331.402,"ARG_OF_PERICENTER":84.5102,"MEAN_ANOMALY":275.6224,"EPHEMERIS_TYPE":0,"CLASSIFICATION_TYPE":"U","NORAD_CAT_ID":48215,"ELEMENT_SET_NO":999,"REV_AT_EPOCH":22089,"BSTAR":0.00019323941,"MEAN_MOTION_DOT":8.4e-7,"MEAN_MOTION_DDOT":0},{"OBJECT_NAME":"ONEWEB-0198","OBJECT_ID":"2021-031G","EPOCH":"2025-11-20T06:48:04.630752","MEAN_MOTION":13.14503204,"ECCENTRICITY":0.00019926,"INCLINATION":87.8982,"RA_OF_ASC_NODE":331.3415,"ARG_OF_PERICENTER":78.1097,"MEAN_ANOMALY":282.0256,"EPHEMERIS_TYPE":0,"CLASSIFICATION_TYPE":"U","NORAD_CAT_ID":48216,"ELEMENT_SET_NO":999,"REV_AT_EPOCH":22104,"BSTAR":-0.00059004467,"MEAN_MOTION_DOT":-2.06e-6,"MEAN_MOTION_DDOT":0},{"OBJECT_NAME":"ONEWEB-0189","OBJECT_ID":"2021-031H","EPOCH":"2025-11-20T07:06:08.904960","MEAN_MOTION":13.1450224,"ECCENTRICITY":0.00019954,"INCLINATION":87.8986,"RA_OF_ASC_NODE":331.3123,"ARG_OF_PERICENTER":80.4839,"MEAN_ANOMALY":279.6516,"EPHEMERIS_TYPE":0,"CLASSIFICATION_TYPE":"U","NORAD_CAT_ID":48217,"ELEMENT_SET_NO":999,"REV_AT_EPOCH":22078,"BSTAR":-0.00070039015,"MEAN_MOTION_DOT":-2.47e-6,"MEAN_MOTION_DDOT":0},{"OBJECT_NAME":"ONEWEB-0196","OBJECT_ID":"2021-031J","EPOCH":"2025-11-20T06:34:10.232256","MEAN_MOTION":13.14501574,"ECCENTRICITY":0.00018354,"INCLINATION":87.898,"RA_OF_ASC_NODE":331.3317,"ARG_OF_PERICENTER":85.4592,"MEAN_ANOMALY":274.6747,"EPHEMERIS_TYPE":0,"CLASSIFICATION_TYPE":"U","NORAD_CAT_ID":48218,"ELEMENT_SET_NO":999,"REV_AT_EPOCH":22078,"BSTAR":-0.00043810427,"MEAN_MOTION_DOT":-1.5e-6,"MEAN_MOTION_DDOT":0},{"OBJECT_NAME":"ONEWEB-0183","OBJECT_ID":"2021-031K","EPOCH":"2025-11-20T02:18:24.630624","MEAN_MOTION":13.14501693,"ECCENTRICITY":0.00015982,"INCLINATION":87.8977,"RA_OF_ASC_NODE":331.3731,"ARG_OF_PERICENTER":91.6682,"MEAN_ANOMALY":268.4631,"EPHEMERIS_TYPE":0,"CLASSIFICATION_TYPE":"U","NORAD_CAT_ID":48219,"ELEMENT_SET_NO":999,"REV_AT_EPOCH":22085,"BSTAR":0.00038259419,"MEAN_MOTION_DOT":1.55e-6,"MEAN_MOTION_DDOT":0},{"OBJECT_NAME":"ONEWEB-0185","OBJECT_ID":"2021-031L","EPOCH":"2025-11-20T06:35:19.746240","MEAN_MOTION":13.14503553,"ECCENTRICITY":0.00014584,"INCLINATION":87.8986,"RA_OF_ASC_NODE":331.3091,"ARG_OF_PERICENTER":81.5777,"MEAN_ANOMALY":278.5518,"EPHEMERIS_TYPE":0,"CLASSIFICATION_TYPE":"U","NORAD_CAT_ID":48220,"ELEMENT_SET_NO":999,"REV_AT_EPOCH":22080,"BSTAR":-0.0002283531,"MEAN_MOTION_DOT":-7.2e-7,"MEAN_MOTION_DDOT":0},{"OBJECT_NAME":"ONEWEB-0187","OBJECT_ID":"2021-031M","EPOCH":"2025-11-20T06:06:35.064000","MEAN_MOTION":13.14502475,"ECCENTRICITY":0.00017464,"INCLINATION":87.8983,"RA_OF_ASC_NODE":331.3578,"ARG_OF_PERICENTER":81.9365,"MEAN_ANOMALY":278.1963,"EPHEMERIS_TYPE":0,"CLASSIFICATION_TYPE":"U","NORAD_CAT_ID":48221,"ELEMENT_SET_NO":999,"REV_AT_EPOCH":22081,"BSTAR":0.00064515147,"MEAN_MOTION_DOT":2.52e-6,"MEAN_MOTION_DDOT":0},{"OBJECT_NAME":"ONEWEB-0192","OBJECT_ID":"2021-031N","EPOCH":"2025-11-20T07:12:59.065632","MEAN_MOTION":13.14501576,"ECCENTRICITY":0.00019169,"INCLINATION":87.8978,"RA_OF_ASC_NODE":331.3396,"ARG_OF_PERICENTER":88.9329,"MEAN_ANOMALY":271.202,"EPHEMERIS_TYPE":0,"CLASSIFICATION_TYPE":"U","NORAD_CAT_ID":48222,"ELEMENT_SET_NO":999,"REV_AT_EPOCH":22073,"BSTAR":-7.1024126e-5,"MEAN_MOTION_DOT":-1.4e-7,"MEAN_MOTION_DDOT":0},{"OBJECT_NAME":"ONEWEB-0219","OBJECT_ID":"2021-031P","EPOCH":"2025-11-20T06:43:17.972832","MEAN_MOTION":13.14502297,"ECCENTRICITY":0.00016589,"INCLINATION":87.8985,"RA_OF_ASC_NODE":331.3197,"ARG_OF_PERICENTER":83.2478,"MEAN_ANOMALY":276.884,"EPHEMERIS_TYPE":0,"CLASSIFICATION_TYPE":"U","NORAD_CAT_ID":48223,"ELEMENT_SET_NO":999,"REV_AT_EPOCH":22093,"BSTAR":-0.00026335849,"MEAN_MOTION_DOT":-8.5e-7,"MEAN_MOTION_DDOT":0},{"OBJECT_NAME":"ONEWEB-0202","OBJECT_ID":"2021-031Q","EPOCH":"2025-11-20T06:15:55.057824","MEAN_MOTION":13.14502581,"ECCENTRICITY":0.00023695,"INCLINATION":87.8987,"RA_OF_ASC_NODE":331.3366,"ARG_OF_PERICENTER":76.7498,"MEAN_ANOMALY":283.3896,"EPHEMERIS_TYPE":0,"CLASSIFICATION_TYPE":"U","NORAD_CAT_ID":48224,"ELEMENT_SET_NO":999,"REV_AT_EPOCH":22091,"BSTAR":0.000222843,"MEAN_MOTION_DOT":9.5e-7,"MEAN_MOTION_DDOT":0},{"OBJECT_NAME":"ONEWEB-0204","OBJECT_ID":"2021-031R","EPOCH":"2025-11-20T07:05:00.764736","MEAN_MOTION":13.1450272,"ECCENTRICITY":0.00015515,"INCLINATION":87.8987,"RA_OF_ASC_NODE":331.3187,"ARG_OF_PERICENTER":95.6611,"MEAN_ANOMALY":264.4696,"EPHEMERIS_TYPE":0,"CLASSIFICATION_TYPE":"U","NORAD_CAT_ID":48225,"ELEMENT_SET_NO":999,"REV_AT_EPOCH":22081,"BSTAR":-0.00039078307,"MEAN_MOTION_DOT":-1.32e-6,"MEAN_MOTION_DDOT":0},{"OBJECT_NAME":"ONEWEB-0205","OBJECT_ID":"2021-031S","EPOCH":"2025-11-20T06:29:36.073824","MEAN_MOTION":13.1450256,"ECCENTRICITY":0.00017186,"INCLINATION":87.8988,"RA_OF_ASC_NODE":331.3167,"ARG_OF_PERICENTER":85.9644,"MEAN_ANOMALY":274.1682,"EPHEMERIS_TYPE":0,"CLASSIFICATION_TYPE":"U","NORAD_CAT_ID":48226,"ELEMENT_SET_NO":999,"REV_AT_EPOCH":22082,"BSTAR":-0.0001529344,"MEAN_MOTION_DOT":-4.4e-7,"MEAN_MOTION_DDOT":0},{"OBJECT_NAME":"ONEWEB-0206","OBJECT_ID":"2021-031T","EPOCH":"2025-11-20T02:11:34.342944","MEAN_MOTION":13.14501598,"ECCENTRICITY":0.00020267,"INCLINATION":87.8997,"RA_OF_ASC_NODE":331.3407,"ARG_OF_PERICENTER":96.6484,"MEAN_ANOMALY":263.4876,"EPHEMERIS_TYPE":0,"CLASSIFICATION_TYPE":"U","NORAD_CAT_ID":48227,"ELEMENT_SET_NO":999,"REV_AT_EPOCH":22075,"BSTAR":0.00075595621,"MEAN_MOTION_DOT":2.93e-6,"MEAN_MOTION_DDOT":0},{"OBJECT_NAME":"ONEWEB-0182","OBJECT_ID":"2021-031U","EPOCH":"2025-11-20T02:04:42.876768","MEAN_MOTION":13.1450256,"ECCENTRICITY":0.00015984,"INCLINATION":87.8972,"RA_OF_ASC_NODE":331.3747,"ARG_OF_PERICENTER":93.7876,"MEAN_ANOMALY":266.3437,"EPHEMERIS_TYPE":0,"CLASSIFICATION_TYPE":"U","NORAD_CAT_ID":48228,"ELEMENT_SET_NO":999,"REV_AT_EPOCH":22096,"BSTAR":0.00036331486,"MEAN_MOTION_DOT":1.47e-6,"MEAN_MOTION_DDOT":0},{"OBJECT_NAME":"ONEWEB-0186","OBJECT_ID":"2021-031V","EPOCH":"2025-11-20T05:59:55.611744","MEAN_MOTION":13.14501799,"ECCENTRICITY":0.00017949,"INCLINATION":87.8995,"RA_OF_ASC_NODE":331.315,"ARG_OF_PERICENTER":88.9068,"MEAN_ANOMALY":271.2267,"EPHEMERIS_TYPE":0,"CLASSIFICATION_TYPE":"U","NORAD_CAT_ID":48229,"ELEMENT_SET_NO":999,"REV_AT_EPOCH":22093,"BSTAR":0.00083321681,"MEAN_MOTION_DOT":3.22e-6,"MEAN_MOTION_DDOT":0}]
